{"type": "FeatureCollection", "features": [{"type": "Feature", "properties": {"norad_id": 26766, "name": "INTELSAT 10 (IS-10)", "group": "intelsat", "lat": -8.63176949149721, "lon": -23.820532685108393, "alt_km": 36103.5567619279, "timestamp": "2025-12-21T09:37:22.315807+00:00", "meta": {"OBJECT_NAME": "INTELSAT 10 (IS-10)", "OBJECT_ID": "2001-019A", "EPOCH": "2025-12-20T17:29:18.796128", "MEAN_MOTION": 0.9907436, "ECCENTRICITY": 0.00077475, "INCLINATION": 8.6473, "RA_OF_ASC_NODE": 61.0766, "ARG_OF_PERICENTER": 228.8053, "MEAN_ANOMALY": 166.3968, "EPHEMERIS_TYPE": 0, "CLASSIFICATION_TYPE": "U", "NORAD_CAT_ID": 26766, "ELEMENT_SET_NO": 999, "REV_AT_EPOCH": 4381, "BSTAR": 0, "MEAN_MOTION_DOT": -1.02e-06, "MEAN_MOTION_DDOT": 0}, "tle": {"line1": "1 26766U 01019A   25354.72868977 -.00000102  00000+0  00000+0 0  9993", "line2": "2 26766   8.6473  61.0766 0007747 228.8053 166.3968  0.99074360 43819"}}, "geometry": {"type": "Point", "coordinates": [-23.820532685108393, -8.63176949149721]}}, {"type": "Feature", "properties": {"norad_id": 26900, "name": "INTELSAT 902 (IS-902)", "group": "intelsat", "lat": 5.315493276319023, "lon": -175.54271706211722, "alt_km": 35782.787621530006, "timestamp": "2025-12-21T09:37:22.315831+00:00", "meta": {"OBJECT_NAME": "INTELSAT 902 (IS-902)", "OBJECT_ID": "2001-039A", "EPOCH": "2025-12-15T13:09:02.081664", "MEAN_MOTION": 1.0027087, "ECCENTRICITY": 0.00045028, "INCLINATION": 5.6536, "RA_OF_ASC_NODE": 74.0372, "ARG_OF_PERICENTER": 189.6359, "MEAN_ANOMALY": 327.9329, "EPHEMERIS_TYPE": 0, "CLASSIFICATION_TYPE": "U", "NORAD_CAT_ID": 26900, "ELEMENT_SET_NO": 999, "REV_AT_EPOCH": 8885, "BSTAR": 0, "MEAN_MOTION_DOT": -2.65e-06, "MEAN_MOTION_DDOT": 0}, "tle": {"line1": "1 26900U 01039A   25349.54794076 -.00000265  00000+0  00000+0 0  9997", "line2": "2 26900   5.6536  74.0372 0004502 189.6359 327.9329  1.00270870 88858"}}, "geometry": {"type": "Point", "coordinates": [-175.54271706211722, 5.315493276319023]}}, {"type": "Feature", "properties": {"norad_id": 27380, "name": "INTELSAT 904 (IS-904)", "group": "intelsat", "lat": 4.826033532243523, "lon": -156.77811718372448, "alt_km": 35789.32666688752, "timestamp": "2025-12-21T09:37:22.315847+00:00", "meta": {"OBJECT_NAME": "INTELSAT 904 (IS-904)", "OBJECT_ID": "2002-007A", "EPOCH": "2025-12-21T02:46:31.544832", "MEAN_MOTION": 1.00270749, "ECCENTRICITY": 0.0001855, "INCLINATION": 6.4742, "RA_OF_ASC_NODE": 71.3362, "ARG_OF_PERICENTER": 249.0229, "MEAN_ANOMALY": 139.7067, "EPHEMERIS_TYPE": 0, "CLASSIFICATION_TYPE": "U", "NORAD_CAT_ID": 27380, "ELEMENT_SET_NO": 999, "REV_AT_EPOCH": 4998, "BSTAR": 0, "MEAN_MOTION_DOT": -2.07e-06, "MEAN_MOTION_DDOT": 0}, "tle": {"line1": "1 27380U 02007A   25355.11564288 -.00000207  00000+0  00000+0 0  9992", "line2": "2 27380   6.4742  71.3362 0001855 249.0229 139.7067  1.00270749 49987"}}, "geometry": {"type": "Point", "coordinates": [-156.77811718372448, 4.826033532243523]}}, {"type": "Feature", "properties": {"norad_id": 27426, "name": "DIRECTV 5 (TEMPO 1)", "group": "intelsat", "lat": 3.250283632572624, "lon": 124.33757335447226, "alt_km": 35797.24242477559, "timestamp": "2025-12-21T09:37:22.315861+00:00", "meta": {"OBJECT_NAME": "DIRECTV 5 (TEMPO 1)", "OBJECT_ID": "2002-023A", "EPOCH": "2025-12-20T21:15:58.348800", "MEAN_MOTION": 1.00271691, "ECCENTRICITY": 0.0003111, "INCLINATION": 4.4215, "RA_OF_ASC_NODE": 77.5576, "ARG_OF_PERICENTER": 198.1661, "MEAN_ANOMALY": 22.8633, "EPHEMERIS_TYPE": 0, "CLASSIFICATION_TYPE": "U", "NORAD_CAT_ID": 27426, "ELEMENT_SET_NO": 999, "REV_AT_EPOCH": 8633, "BSTAR": 0, "MEAN_MOTION_DOT": -3.7e-07, "MEAN_MOTION_DDOT": 0}, "tle": {"line1": "1 27426U 02023A   25354.88609200 -.00000037  00000+0  00000+0 0  9999", "line2": "2 27426   4.4215  77.5576 0003111 198.1661  22.8633  1.00271691 86335"}}, "geometry": {"type": "Point", "coordinates": [124.33757335447226, 3.250283632572624]}}, {"type": "Feature", "properties": {"norad_id": 27438, "name": "INTELSAT 905 (IS-905)", "group": "intelsat", "lat": 2.725154289071828, "lon": 97.21703201874926, "alt_km": 35796.71681567404, "timestamp": "2025-12-21T09:37:22.315874+00:00", "meta": {"OBJECT_NAME": "INTELSAT 905 (IS-905)", "OBJECT_ID": "2002-027A", "EPOCH": "2025-12-20T10:52:51.499776", "MEAN_MOTION": 1.00272487, "ECCENTRICITY": 0.00026639, "INCLINATION": 6.3037, "RA_OF_ASC_NODE": 71.9674, "ARG_OF_PERICENTER": 202.299, "MEAN_ANOMALY": 201.0262, "EPHEMERIS_TYPE": 0, "CLASSIFICATION_TYPE": "U", "NORAD_CAT_ID": 27438, "ELEMENT_SET_NO": 999, "REV_AT_EPOCH": 4957, "BSTAR": 0, "MEAN_MOTION_DOT": 1.12e-06, "MEAN_MOTION_DDOT": 0}, "tle": {"line1": "1 27438U 02027A   25354.45337384  .00000112  00000+0  00000+0 0  9993", "line2": "2 27438   6.3037  71.9674 0002663 202.2990 201.0262  1.00272487 49579"}}, "geometry": {"type": "Point", "coordinates": [97.21703201874926, 2.725154289071828]}}, {"type": "Feature", "properties": {"norad_id": 27445, "name": "GALAXY 3C (G-3C)", "group": "intelsat", "lat": 2.8426011004751874, "lon": 139.65669557565457, "alt_km": 35781.135991392934, "timestamp": "2025-12-21T09:37:22.315886+00:00", "meta": {"OBJECT_NAME": "GALAXY 3C (G-3C)", "OBJECT_ID": "2002-030A", "EPOCH": "2025-12-21T04:16:38.932032", "MEAN_MOTION": 1.00272092, "ECCENTRICITY": 0.0001139, "INCLINATION": 3.2835, "RA_OF_ASC_NODE": 80.4177, "ARG_OF_PERICENTER": 79.2121, "MEAN_ANOMALY": 259.6765, "EPHEMERIS_TYPE": 0, "CLASSIFICATION_TYPE": "U", "NORAD_CAT_ID": 27445, "ELEMENT_SET_NO": 999, "REV_AT_EPOCH": 4470, "BSTAR": 0, "MEAN_MOTION_DOT": -1.32e-06, "MEAN_MOTION_DDOT": 0}, "tle": {"line1": "1 27445U 02030A   25355.17822838 -.00000132  00000+0  00000+0 0  9991", "line2": "2 27445   3.2835  80.4177 0001139  79.2121 259.6765  1.00272092 44706"}}, "geometry": {"type": "Point", "coordinates": [139.65669557565457, 2.8426011004751874]}}, {"type": "Feature", "properties": {"norad_id": 27513, "name": "INTELSAT 906 (IS-906)", "group": "intelsat", "lat": -3.7124268905438407, "lon": -61.39776826443408, "alt_km": 35761.87890803972, "timestamp": "2025-12-21T09:37:22.315898+00:00", "meta": {"OBJECT_NAME": "INTELSAT 906 (IS-906)", "OBJECT_ID": "2002-041A", "EPOCH": "2025-12-20T20:07:29.951904", "MEAN_MOTION": 1.00272914, "ECCENTRICITY": 0.0006313, "INCLINATION": 5.3501, "RA_OF_ASC_NODE": 75.1356, "ARG_OF_PERICENTER": 199.098, "MEAN_ANOMALY": 181.4397, "EPHEMERIS_TYPE": 0, "CLASSIFICATION_TYPE": "U", "NORAD_CAT_ID": 27513, "ELEMENT_SET_NO": 999, "REV_AT_EPOCH": 8524, "BSTAR": 0, "MEAN_MOTION_DOT": 3.2e-07, "MEAN_MOTION_DDOT": 0}, "tle": {"line1": "1 27513U 02041A   25354.83854111  .00000032  00000+0  00000+0 0  9998", "line2": "2 27513   5.3501  75.1356 0006313 199.0980 181.4397  1.00272914 85248"}}, "geometry": {"type": "Point", "coordinates": [-61.39776826443408, -3.7124268905438407]}}, {"type": "Feature", "properties": {"norad_id": 27954, "name": "GALAXY 13 (HORIZONS-1)", "group": "intelsat", "lat": -0.003808826111030796, "lon": 84.5340131590144, "alt_km": 35796.620480077254, "timestamp": "2025-12-21T09:37:22.315924+00:00", "meta": {"OBJECT_NAME": "GALAXY 13 (HORIZONS-1)", "OBJECT_ID": "2003-044A", "EPOCH": "2025-12-21T00:29:59.623008", "MEAN_MOTION": 1.00270036, "ECCENTRICITY": 0.0002381, "INCLINATION": 0.9579, "RA_OF_ASC_NODE": 86.3652, "ARG_OF_PERICENTER": 178.8264, "MEAN_ANOMALY": 42.1324, "EPHEMERIS_TYPE": 0, "CLASSIFICATION_TYPE": "U", "NORAD_CAT_ID": 27954, "ELEMENT_SET_NO": 999, "REV_AT_EPOCH": 4478, "BSTAR": 0, "MEAN_MOTION_DOT": 1.55e-06, "MEAN_MOTION_DDOT": 0}, "tle": {"line1": "1 27954U 03044A   25355.02082897  .00000155  00000+0  00000+0 0  9993", "line2": "2 27954   0.9579  86.3652 0002381 178.8264  42.1324  1.00270036 44787"}}, "geometry": {"type": "Point", "coordinates": [84.5340131590144, -0.003808826111030796]}}, {"type": "Feature", "properties": {"norad_id": 28358, "name": "INTELSAT 10-02", "group": "intelsat", "lat": -0.007471498364586421, "lon": -126.41598729735105, "alt_km": 35784.618580635426, "timestamp": "2025-12-21T09:37:22.315939+00:00", "meta": {"OBJECT_NAME": "INTELSAT 10-02", "OBJECT_ID": "2004-022A", "EPOCH": "2025-12-21T02:55:15.707712", "MEAN_MOTION": 1.00272896, "ECCENTRICITY": 9.82e-05, "INCLINATION": 0.0211, "RA_OF_ASC_NODE": 73.8593, "ARG_OF_PERICENTER": 233.9977, "MEAN_ANOMALY": 184.9424, "EPHEMERIS_TYPE": 0, "CLASSIFICATION_TYPE": "U", "NORAD_CAT_ID": 28358, "ELEMENT_SET_NO": 999, "REV_AT_EPOCH": 7877, "BSTAR": 0, "MEAN_MOTION_DOT": 1.3e-07, "MEAN_MOTION_DDOT": 0}, "tle": {"line1": "1 28358U 04022A   25355.12170958  .00000013  00000+0  00000+0 0  9999", "line2": "2 28358   0.0211  73.8593 0000982 233.9977 184.9424  1.00272896 78772"}}, "geometry": {"type": "Point", "coordinates": [-126.41598729735105, -0.007471498364586421]}}, {"type": "Feature", "properties": {"norad_id": 28626, "name": "XM-3 (RHYTHM)", "group": "intelsat", "lat": -0.1603614091852776, "lon": -52.32874506775704, "alt_km": 36155.71008400122, "timestamp": "2025-12-21T09:37:22.315951+00:00", "meta": {"OBJECT_NAME": "XM-3 (RHYTHM)", "OBJECT_ID": "2005-008A", "EPOCH": "2025-12-21T03:16:43.654368", "MEAN_MOTION": 0.98949883, "ECCENTRICITY": 0.0001963, "INCLINATION": 0.1953, "RA_OF_ASC_NODE": 82.0029, "ARG_OF_PERICENTER": 277.8212, "MEAN_ANOMALY": 213.7097, "EPHEMERIS_TYPE": 0, "CLASSIFICATION_TYPE": "U", "NORAD_CAT_ID": 28626, "ELEMENT_SET_NO": 999, "REV_AT_EPOCH": 4083, "BSTAR": 0, "MEAN_MOTION_DOT": 8.2e-07, "MEAN_MOTION_DDOT": 0}, "tle": {"line1": "1 28626U 05008A   25355.13661637  .00000082  00000+0  00000+0 0  9998", "line2": "2 28626   0.1953  82.0029 0001963 277.8212 213.7097  0.98949883 40835"}}, "geometry": {"type": "Point", "coordinates": [-52.32874506775704, -0.1603614091852776]}}]}